CUTE-1 (CO-55)          
1 27844U 03031E   26031.61112726  .00000430  00000+0  20549-3 0  9999
2 27844  98.6771  41.8742 0008900 217.2283 142.8280 14.24232778172233
CUBESAT XI-IV (CO-57)   
1 27848U 03031J   26031.46141182  .00000365  00000+0  17963-3 0  9997
2 27848  98.6801  41.5489 0008563 237.4171 122.6181 14.23532710171920
CUBESAT XI-V            
1 28895U 05043F   26031.40314354  .00002137  00000+0  34722-3 0  9993
2 28895  98.2764 184.3424 0013206 280.2612  79.7105 14.72143192 81629
CUTE-1.7+APD II (CO-65) 
1 32785U 08021C   26031.88891634  .00006842  00000+0  45064-3 0  9996
2 32785  97.8138  10.7336 0010547 125.7838 234.4372 15.07810674964647
CANX-2                  
1 32790U 08021H   26031.86321795  .00004596  00000+0  33344-3 0  9998
2 32790  97.8501   9.2228 0011925 136.5335 223.6832 15.04373000964301
SEEDS II (CO-66)        
1 32791U 08021J   26031.46819416  .00017184  00000+0  64255-3 0  9999
2 32791  97.7471  23.4120 0005586  79.9848 280.2020 15.27396626966383
SWISSCUBE               
1 35932U 09051B   26031.66194697  .00001496  00000+0  30718-3 0  9998
2 35932  98.4135 297.1424 0005596 281.9937  78.0636 14.62146465869201
BEESAT-1                
1 35933U 09051C   26031.67098126  .00001339  00000+0  28021-3 0  9990
2 35933  98.4062 297.0657 0004244 300.9295  59.1487 14.61436558869248
ITUPSAT1                
1 35935U 09051E   26031.68031262  .00001227  00000+0  26472-3 0  9995
2 35935  98.4151 296.4064 0006596 309.5589  50.5027 14.60179127868819
TISAT 1                 
1 36799U 10035E   26031.79111825  .00019148  00000+0  75088-3 0  9992
2 36799  98.0627 326.9565 0003869  44.5607 315.5940 15.25804428846864
AEROCUBE 4.5A           
1 38767U 12048K   26031.70232038  .00076400  00000+0  10392-2 0  9996
2 38767  64.6397 148.1738 0052162 221.7623 137.9535 15.55503253351229
STRAND-1                
1 39090U 13009E   26031.45372619  .00000450  00000+0  16601-3 0  9998
2 39090  98.3850 215.0780 0007592 281.0668  78.9665 14.37058912677420
BRITE-AUSTRIA           
1 39091U 13009F   26031.75725779  .00000275  00000+0  10833-3 0  9997
2 39091  98.3916 214.5955 0009132 289.8323  70.1879 14.36472320677465
NEE-01 PEGASO           
1 39151U 13018B   26031.83736282  .00003237  00000+0  31864-3 0  9992
2 39151  98.0985 171.7393 0011957 252.0450 107.9465 14.92778018690354
POPACS 1                
1 39268U 13055D   26021.81096740  .01425461 -86095-6  68470-3 0  9994
2 39268  80.9441 157.9048 0049078 258.9893 100.5867 16.18153837649966
POPACS 2                
1 39269U 13055E   26031.69811660  .00016555  00000+0  29744-3 0  9992
2 39269  80.9965 299.9061 0435317 271.0377  84.1004 14.86181060642907
POPACS 3                
1 39270U 13055F   26031.36735714  .00007659  00000+0  18429-3 0  9996
2 39270  81.0020  17.2056 0564605 125.7952 239.7095 14.52989334618662
ZACUBE-1 (TSHEPISOSAT)  
1 39417U 13066B   26031.84292028  .00007272  00000+0  58179-3 0  9997
2 39417  97.8145 353.4971 0041407 346.9943  13.0208 14.99825422660288
WNISAT-1                
1 39423U 13066H   26031.84101850  .00001047  00000+0  20036-3 0  9991
2 39423  97.6977 190.8539 0162694 301.6353  56.9061 14.57749135646865
TRITON-1                
1 39427U 13066M   26031.85101589  .00005430  00000+0  66117-3 0  9995
2 39427  97.8321 304.7908 0090349 319.4419  40.0084 14.80936975653905
GOMX-1                  
1 39430U 13066Q   26031.83884072  .00003437  00000+0  52339-3 0  9998
2 39430  97.6583 240.8397 0130135 154.8061 205.9571 14.68927725649896
CUBEBUG-2 (LO-74)       
1 39440U 13066AA  26031.82949017  .00003479  00000+0  33276-3 0  9994
2 39440  97.8763 340.4725 0060475 118.4333 242.2998 14.92512141656645
NEE-02 KRYSAOR          
1 39441U 13066AB  26031.81552818  .00001849  00000+0  20975-3 0  9994
2 39441  97.8782 332.1647 0067512 155.5815 204.8624 14.85934690655945
FUNCUBE-1 (AO-73)       
1 39444U 13066AE  26031.86917532  .00010044  00000+0  66227-3 0  9997
2 39444  97.8115   0.8202 0036607 309.2703  50.5278 15.07130822659113
UWE-3                   
1 39446U 13066AG  26031.40559248  .00005463  00000+0  48335-3 0  9994
2 39446  97.8531 346.8232 0051805  56.6657 303.9508 14.95675068657123
BRITE-CA1 (TORONTO)     
1 40020U 14033L   26031.79650369  .00001107  00000+0  17470-3 0  9994
2 40020  97.9521 163.4414 0078871 354.5403   5.4936 14.72362465622141
DUCHIFAT-1              
1 40021U 14033M   26031.64998825  .00042811  00000+0  88985-3 0  9997
2 40021  98.0710  73.8351 0005539 195.1042 165.0040 15.45524561634541
NANOSATC-BR1            
1 40024U 14033Q   26031.50903123  .00014846  00000+0  56892-3 0  9991
2 40024  98.0866  52.1792 0002387 323.1219  36.9853 15.26637772633097
QB50P1                  
1 40025U 14033R   26031.48565573  .00010159  00000+0  53730-3 0  9993
2 40025  98.0981  33.2877 0008578 345.9310  14.1681 15.15653642632304
QB50P2                  
1 40032U 14033Y   26031.50237032  .00009325  00000+0  53324-3 0  9992
2 40032  98.0682  20.1474 0005804 286.1352  73.9238 15.12904545631981
PERSEUS-M2              
1 40037U 14033AD  26031.81657247  .00003271  00000+0  30444-3 0  9997
2 40037  97.9820 339.7644 0013148  38.1648 322.0500 14.94972018630404
PERSEUS-M1              
1 40039U 14033AF  26031.79882987  .00002202  00000+0  20640-3 0  9997
2 40039  97.9519 333.8638 0012788  36.7936 323.4159 14.95048858630257
POLYITAN-1              
1 40042U 14033AJ  26031.75717265  .00017750  00000+0  65335-3 0  9997
2 40042  98.1060  45.5810 0005818 263.0097  97.0478 15.27916041632729
TIGRISAT                
1 40043U 14033AK  26031.38569726  .00003272  00000+0  38607-3 0  9990
2 40043  97.7600 184.7513 0050290 162.2526 198.0460 14.84487010625324
AEROCUBE 6A             
1 40045U 14033AM  26031.42151080  .00007451  00000+0  65379-3 0  9996
2 40045  97.7078 200.0995 0040848 112.7242 247.8305 14.96254771626156
AEROCUBE 6B             
1 40046U 14033AN  26031.41870229  .00007861  00000+0  66645-3 0  9991
2 40046  97.7064 199.6194 0039657 104.7017 255.8605 14.97611998626277
CANX-4                  
1 40055U 14034C   26031.61939126  .00001428  00000+0  19170-3 0  9990
2 40055  98.3326 261.7729 0014122  89.8043 270.4786 14.80956855624314
CANX-5                  
1 40056U 14034D   26031.61938012  .00001423  00000+0  19098-3 0  9998
2 40056  98.3328 261.8081 0014103  90.0956 270.1872 14.80973214615125
UKUBE-1                 
1 40074U 14037F   26031.47542431  .00008290  00000+0  50151-3 0  9995
2 40074  98.4180  20.6916 0000553  93.0520 267.0771 15.10938012627895
BRITE-PL2 (HEWELIUSZ)   
1 40119U 14049B   26031.83831074  .00002730  00000+0  26140-3 0  9996
2 40119  97.8979 142.9645 0013894 197.2127 162.8623 14.93967612621084
AEROCUBE 5C             
1 40965U 15058B   26031.81399876  .00002862  00000+0  26200-3 0  9996
2 40965  64.7696 326.5616 0133040 116.9549 244.5224 14.90551925345320
AEROCUBE 7              
1 40966U 15058C   26031.85080247  .00003979  00000+0  33051-3 0  9992
2 40966  64.7645 311.4649 0123189 116.2815 245.1018 14.94479524345579
FOX-1A (AO-85)          
1 40967U 15058D   26031.81639542  .00002934  00000+0  27322-3 0  9991
2 40967  64.7775 342.4935 0130694 110.4837 251.0361 14.90055389 93241
SINOD-D 1               
1 40968U 15058E   26031.50935107  .00004379  00000+0  36428-3 0  9996
2 40968  64.7776 326.5316 0119149 108.2702 253.1420 14.94620858 96220
SNAP-3 ALICE            
1 40970U 15058G   26031.78603081  .00049448  00000+0  12343-2 0  9997
2 40970  64.7566 207.3080 0038970  94.4247 266.1342 15.39098868 95761
LMRST-SAT               
1 40971U 15058H   26031.87195549  .00002761  00000+0  25909-3 0  9993
2 40971  64.7782 338.4076 0133001 112.3778 249.1489 14.89690254 93248
SNAP-3 EDDIE            
1 40972U 15058J   26031.80669946  .00051183  00000+0  12357-2 0  9998
2 40972  64.7491 198.8532 0041041  98.3986 262.1806 15.40005383 97891
PROPCUBE 3              
1 40973U 15058K   26031.76521979  .00003726  00000+0  31948-3 0  9995
2 40973  64.7710 318.4266 0125864 114.3606 247.0707 14.93151822 94429
BISONSAT                
1 40974U 15058L   26031.87997686  .00011306  00000+0  60274-3 0  9997
2 40974  64.7596 253.2205 0081985 108.2550 252.7517 15.12652964 94973
SNAP-3 JIMI             
1 40975U 15058M   26031.84940089  .00005848  00000+0  42093-3 0  9993
2 40975  64.7663 290.5928 0108128 111.8989 249.3667 15.00532702 93757
PROPCUBE 1 (FLORA)      
1 40976U 15058N   26031.63583058  .00002567  00000+0  25094-3 0  9997
2 40976  64.7765 358.1732 0132145 114.6537 246.8403 14.88365647 95930
SINOD-D 3               
1 40977U 15058P   26031.83739656  .00003871  00000+0  33836-3 0  9999
2 40977  64.7747 341.2216 0120670 112.9249 248.4653 14.92818098 94394
HORYU-4                 
1 41340U 16012D   26031.86316583  .00061040  00000+0  81213-3 0  9992
2 41340  30.9936 324.3610 0003070   3.7216 356.3457 15.56845159549350
RAVAN                   
1 41849U 16067B   26031.58683431  .00032782  00000+0  74025-3 0  9998
2 41849  98.0115 266.5399 0007801 115.6266 244.5787 15.43113390506553
CELTEE 1                
1 41850U 16067C   26031.57870914  .00005947  00000+0  29579-3 0  9990
2 41850  98.0853 248.8151 0001646  44.4115 315.7249 15.18052275505140
OPTICUBE 04             
1 41851U 16067D   26031.84192373  .00003605  00000+0  23240-3 0  9995
2 41851  98.0817 236.9412 0015013 215.4663 144.5567 15.08936660504609
AEROCUBE 8D             
1 41852U 16067E   26031.59460793  .00008244  00000+0  36294-3 0  9999
2 41852  98.0873 251.4235 0002238 241.9791 118.1217 15.22136545505271
AEROCUBE 8C             
1 41853U 16067F   26031.57459675  .00008060  00000+0  35263-3 0  9996
2 41853  98.0738 248.8139 0005580 160.1740 199.9713 15.22348836505269
CORVUS BC2              
1 42846U 17042X   26031.43843664  .00003743  00000+0  26588-3 0  9996
2 42846  97.3882 198.3212 0012431 214.7915 145.2501 15.05227294466482
